sat18467
1 18467U 78026HE  20045.89093956  .00000063  00000-0  45951-4 0  9996
2 18467  98.7543  28.4322 0094406 249.2780 140.2564 14.23036833815481
